2024/03/05 23:45
KFMH 052345Z 14007KT 1/2SM -DZ OVC002 07/07 A3007 

2024/03/05 23:45
KFMH 052345Z 14007KT 1/2SM -DZ OVC002 07/07 A3007

2024/03/05 23:45
KFMH 052345Z 14007KT 1/2SM -DZ OVC002 07/07 A3007

2024/03/05 23:45
KFMH 052345Z 14007KT 1/2SM -DZ OVC002 07/07 A3007

2024/03/05 23:55
K6L4 052355Z AUTO 33004G11KT 10SM BKN095 BKN120 21/09 A2994 RMK AO2

2024/03/05 23:55
KAID 052355Z AUTO 32003KT 10SM OVC017 16/13 A2993 RMK AO2 P0001 60039 T01550126 10185 20135

2024/03/05 23:45
KSEM 052345Z AUTO 00000KT 10SM FEW075 BKN090 BKN110 19/19 A2982 RMK AO2

2024/03/05 23:55
KMCX 052355Z AUTO 36009KT 10SM OVC006 07/06 A2995 RMK AO2 T00670060 10100 20067

2024/03/05 23:45
KSWF 052345Z 04006KT 3SM BR OVC004 07/07 A3000 
