// sử dụng decode thông qua command line để lấy thông tin metar
Example: ```mweather.exe /sxml test.xml -metar "LFPO 100900Z VRB03KT CAVOK 27/16 Q1020 NOSIG"```


![result demo](https://github.com/quanghung97/mweather-decode-nisoft/blob/master/image.png?raw=true)
